{
  "type": "FeatureCollection",
  "features": [
    {
      "type": "Feature",
      "properties": {
        "norad_id": 30683,
        "name": "FENGYUN 1C DEB",
        "group": "fengyun-1c-debris",
        "lat": -58.67267645331115,
        "lon": 26.493335170613744,
        "alt_km": 929.8802959315626,
        "timestamp": "2025-12-24T18:55:56.346343+00:00",
        "meta_object_name": "FENGYUN 1C DEB",
        "meta_object_id": "1999-025AQR",
        "meta_epoch": "2025-12-23T00:29:12.399360",
        "meta_mean_motion": 14.00420863,
        "meta_eccentricity": 0.01382758,
        "meta_inclination": 99.4266,
        "meta_ra_of_asc_node": 8.8308,
        "meta_arg_of_pericenter": 196.4789,
        "meta_mean_anomaly": 190.6513,
        "meta_ephemeris_type": 0,
        "meta_classification_type": "U",
        "meta_norad_cat_id": 30683,
        "meta_element_set_no": 999,
        "meta_rev_at_epoch": 95695,
        "meta_bstar": 0.0010661145,
        "meta_mean_motion_dot": 1.67e-05,
        "meta_mean_motion_ddot": 0,
        "tle_line1": "1 30683U 99025AQR 25357.02028240  .00001670  00000+0  10661-2 0  9994",
        "tle_line2": "2 30683  99.4266   8.8308 0138275 196.4789 190.6513 14.00420863956952"
      },
      "geometry": {
        "type": "Point",
        "coordinates": [
          26.493335170613744,
          -58.67267645331115
        ]
      }
    },
    {
      "type": "Feature",
      "properties": {
        "norad_id": 30684,
        "name": "FENGYUN 1C DEB",
        "group": "fengyun-1c-debris",
        "lat": 78.7700344986471,
        "lon": -82.1998028861822,
        "alt_km": 1140.3012912266822,
        "timestamp": "2025-12-24T18:55:56.346355+00:00",
        "meta_object_name": "FENGYUN 1C DEB",
        "meta_object_id": "1999-025AQS",
        "meta_epoch": "2025-12-23T02:02:17.143296",
        "meta_mean_motion": 13.66826807,
        "meta_eccentricity": 0.0236015,
        "meta_inclination": 99.5309,
        "meta_ra_of_asc_node": 38.3274,
        "meta_arg_of_pericenter": 242.7704,
        "meta_mean_anomaly": 114.9216,
        "meta_ephemeris_type": 0,
        "meta_classification_type": "U",
        "meta_norad_cat_id": 30684,
        "meta_element_set_no": 999,
        "meta_rev_at_epoch": 93770,
        "meta_bstar": 0.00095871598,
        "meta_mean_motion_dot": 9.23e-06,
        "meta_mean_motion_ddot": 0,
        "tle_line1": "1 30684U 99025AQS 25357.08492064  .00000923  00000+0  95872-3 0  9998",
        "tle_line2": "2 30684  99.5309  38.3274 0236015 242.7704 114.9216 13.66826807937705"
      },
      "geometry": {
        "type": "Point",
        "coordinates": [
          -82.1998028861822,
          78.7700344986471
        ]
      }
    },
    {
      "type": "Feature",
      "properties": {
        "norad_id": 30686,
        "name": "FENGYUN 1C DEB",
        "group": "fengyun-1c-debris",
        "lat": -3.237517442526118,
        "lon": -165.42756258214607,
        "alt_km": 643.9621451208386,
        "timestamp": "2025-12-24T18:55:56.346365+00:00",
        "meta_object_name": "FENGYUN 1C DEB",
        "meta_object_id": "1999-025AQU",
        "meta_epoch": "2025-12-24T06:09:48.753792",
        "meta_mean_motion": 14.73990306,
        "meta_eccentricity": 0.01440831,
        "meta_inclination": 99.0326,
        "meta_ra_of_asc_node": 193.4645,
        "meta_arg_of_pericenter": 84.9219,
        "meta_mean_anomaly": 332.0607,
        "meta_ephemeris_type": 0,
        "meta_classification_type": "U",
        "meta_norad_cat_id": 30686,
        "meta_element_set_no": 999,
        "meta_rev_at_epoch": 99771,
        "meta_bstar": 0.00070049676,
        "meta_mean_motion_dot": 5.372e-05,
        "meta_mean_motion_ddot": 0,
        "tle_line1": "1 30686U 99025AQU 25358.25681428  .00005372  00000+0  70050-3 0  9998",
        "tle_line2": "2 30686  99.0326 193.4645 0144083  84.9219 332.0607 14.73990306997715"
      },
      "geometry": {
        "type": "Point",
        "coordinates": [
          -165.42756258214607,
          -3.237517442526118
        ]
      }
    },
    {
      "type": "Feature",
      "properties": {
        "norad_id": 30688,
        "name": "FENGYUN 1C DEB",
        "group": "fengyun-1c-debris",
        "lat": -30.218386935301364,
        "lon": 77.32911147597468,
        "alt_km": 781.2596926499655,
        "timestamp": "2025-12-24T18:55:56.346377+00:00",
        "meta_object_name": "FENGYUN 1C DEB",
        "meta_object_id": "1999-025AQW",
        "meta_epoch": "2025-12-24T04:14:46.931712",
        "meta_mean_motion": 14.32788765,
        "meta_eccentricity": 0.00158699,
        "meta_inclination": 98.7001,
        "meta_ra_of_asc_node": 71.5982,
        "meta_arg_of_pericenter": 279.6732,
        "meta_mean_anomaly": 135.1984,
        "meta_ephemeris_type": 0,
        "meta_classification_type": "U",
        "meta_norad_cat_id": 30688,
        "meta_element_set_no": 999,
        "meta_rev_at_epoch": 97424,
        "meta_bstar": 0.0016649901,
        "meta_mean_motion_dot": 4.502e-05,
        "meta_mean_motion_ddot": 0,
        "tle_line1": "1 30688U 99025AQW 25358.17693208  .00004502  00000+0  16650-2 0  9999",
        "tle_line2": "2 30688  98.7001  71.5982 0015869 279.6732 135.1984 14.32788765974247"
      },
      "geometry": {
        "type": "Point",
        "coordinates": [
          77.32911147597468,
          -30.218386935301364
        ]
      }
    },
    {
      "type": "Feature",
      "properties": {
        "norad_id": 30689,
        "name": "FENGYUN 1C DEB",
        "group": "fengyun-1c-debris",
        "lat": 42.06698300801077,
        "lon": 172.62497936038505,
        "alt_km": 818.6152300232588,
        "timestamp": "2025-12-24T18:55:56.346388+00:00",
        "meta_object_name": "FENGYUN 1C DEB",
        "meta_object_id": "1999-025AQX",
        "meta_epoch": "2025-12-23T10:41:28.125888",
        "meta_mean_motion": 14.11782484,
        "meta_eccentricity": 0.01117885,
        "meta_inclination": 98.7091,
        "meta_ra_of_asc_node": 343.3688,
        "meta_arg_of_pericenter": 73.1558,
        "meta_mean_anomaly": 79.0925,
        "meta_ephemeris_type": 0,
        "meta_classification_type": "U",
        "meta_norad_cat_id": 30689,
        "meta_element_set_no": 999,
        "meta_rev_at_epoch": 97041,
        "meta_bstar": 0.0003541883,
        "meta_mean_motion_dot": 6.43e-06,
        "meta_mean_motion_ddot": 0,
        "tle_line1": "1 30689U 99025AQX 25357.44546442  .00000643  00000+0  35419-3 0  9993",
        "tle_line2": "2 30689  98.7091 343.3688 0111788  73.1558  79.0925 14.11782484970415"
      },
      "geometry": {
        "type": "Point",
        "coordinates": [
          172.62497936038505,
          42.06698300801077
        ]
      }
    },
    {
      "type": "Feature",
      "properties": {
        "norad_id": 30690,
        "name": "FENGYUN 1C DEB",
        "group": "fengyun-1c-debris",
        "lat": 42.82352861680995,
        "lon": 117.84622854857378,
        "alt_km": 885.5670833817139,
        "timestamp": "2025-12-24T18:55:56.346398+00:00",
        "meta_object_name": "FENGYUN 1C DEB",
        "meta_object_id": "1999-025AQY",
        "meta_epoch": "2025-12-23T14:02:14.507232",
        "meta_mean_motion": 14.02371213,
        "meta_eccentricity": 0.01049916,
        "meta_inclination": 99.1598,
        "meta_ra_of_asc_node": 288.0365,
        "meta_arg_of_pericenter": 46.4228,
        "meta_mean_anomaly": 133.875,
        "meta_ephemeris_type": 0,
        "meta_classification_type": "U",
        "meta_norad_cat_id": 30690,
        "meta_element_set_no": 999,
        "meta_rev_at_epoch": 95859,
        "meta_bstar": 0.0015768861,
        "meta_mean_motion_dot": 2.496e-05,
        "meta_mean_motion_ddot": 0,
        "tle_line1": "1 30690U 99025AQY 25357.58489013  .00002496  00000+0  15769-2 0  9993",
        "tle_line2": "2 30690  99.1598 288.0365 0104991  46.4228 133.8750 14.02371213958590"
      },
      "geometry": {
        "type": "Point",
        "coordinates": [
          117.84622854857378,
          42.82352861680995
        ]
      }
    },
    {
      "type": "Feature",
      "properties": {
        "norad_id": 30691,
        "name": "FENGYUN 1C DEB",
        "group": "fengyun-1c-debris",
        "lat": -64.59122800407674,
        "lon": 28.369485241289112,
        "alt_km": 943.2258133963915,
        "timestamp": "2025-12-24T18:55:56.346408+00:00",
        "meta_object_name": "FENGYUN 1C DEB",
        "meta_object_id": "1999-025AQZ",
        "meta_epoch": "2025-12-24T00:34:41.889216",
        "meta_mean_motion": 13.89463731,
        "meta_eccentricity": 0.01395984,
        "meta_inclination": 98.743,
        "meta_ra_of_asc_node": 8.749,
        "meta_arg_of_pericenter": 202.1798,
        "meta_mean_anomaly": 226.9783,
        "meta_ephemeris_type": 0,
        "meta_classification_type": "U",
        "meta_norad_cat_id": 30691,
        "meta_element_set_no": 999,
        "meta_rev_at_epoch": 95273,
        "meta_bstar": 0.00093458335,
        "meta_mean_motion_dot": 1.194e-05,
        "meta_mean_motion_ddot": 0,
        "tle_line1": "1 30691U 99025AQZ 25358.02409594  .00001194  00000+0  93458-3 0  9996",
        "tle_line2": "2 30691  98.7430   8.7490 0139598 202.1798 226.9783 13.89463731952732"
      },
      "geometry": {
        "type": "Point",
        "coordinates": [
          28.369485241289112,
          -64.59122800407674
        ]
      }
    }
  ]
}